QIANFAN-9               
1 60387U 24140J   25364.23769344  .00000165  00000+0  23698-3 0  9995
2 60387  88.9779 297.5279 0016907 141.0778 219.1594 13.50985458 69695
QIANFAN-10              
1 60388U 24140K   25364.24187018  .00000172  00000+0  24696-3 0  9996
2 60388  88.9789 296.8763 0015997 119.3544 240.9207 13.50985863 69822
QIANFAN-11              
1 60389U 24140L   25364.27900519  .00000141  00000+0  19975-3 0  9999
2 60389  88.9715 297.4466 0014971 139.9273 220.2985 13.50981963 69480
QIANFAN-12              
1 60390U 24140M   25364.29948513  .00000164  00000+0  23443-3 0  9999
2 60390  88.9758 297.4956 0013545 147.0654 213.1343 13.50982912 69611
QIANFAN-13              
1 60391U 24140N   25364.27067421  .00000165  00000+0  23653-3 0  9992
2 60391  88.9770 297.6006 0013275 149.6227 210.5696 13.50983507 69633
QIANFAN-14              
1 60392U 24140P   25364.29528463  .00000173  00000+0  24945-3 0  9997
2 60392  88.9749 297.4919 0016932 151.2359 208.9729 13.50982916 69641
QIANFAN-15              
1 60393U 24140Q   25364.22951512  .00000152  00000+0  21727-3 0  9998
2 60393  88.9772 297.4593 0013194 136.2967 223.9232 13.50981620 69626
QIANFAN-16              
1 60394U 24140R   25364.29128652  .00000181  00000+0  26136-3 0  9998
2 60394  88.9775 297.5736 0014770 154.2227 205.9663 13.50986973 69545
